[{"OBJECT_NAME":"STARLINK-6190","OBJECT_ID":"2023-078H","EPOCH":"2026-03-09T22:48:45.792000","MEAN_MOTION":14.98324844,"ECCENTRICITY":0.0002323,"INCLINATION":70.0012,"RA_OF_ASC_NODE":3.8987,"ARG_OF_PERICENTER":268.2957,"MEAN_ANOMALY":91.7936,"EPHEMERIS_TYPE":0,"CLASSIFICATION_TYPE":"U","NORAD_CAT_ID":56774,"ELEMENT_SET_NO":999,"REV_AT_EPOCH":15222,"BSTAR":-3.4467296e-5,"MEAN_MOTION_DOT":-5.04e-6,"MEAN_MOTION_DDOT":0},{"OBJECT_NAME":"NOAA 16 DEB","OBJECT_ID":"2000-055HK","EPOCH":"2026-03-09T11:22:55.184448","MEAN_MOTION":14.96713123,"ECCENTRICITY":0.00044813,"INCLINATION":98.9091,"RA_OF_ASC_NODE":257.3123,"ARG_OF_PERICENTER":226.904,"MEAN_ANOMALY":133.1803,"EPHEMERIS_TYPE":0,"CLASSIFICATION_TYPE":"U","NORAD_CAT_ID":41307,"ELEMENT_SET_NO":999,"REV_AT_EPOCH":53055,"BSTAR":0.0073865996,"MEAN_MOTION_DOT":0.00085329,"MEAN_MOTION_DDOT":0}]
